TEVEL2-1                
1 63217U 25052H   26068.64782323  .00020683  00000+0  70600-3 0  9994
2 63217  97.3991 324.7682 0004767 104.8919 255.2849 15.30341923 54855
STARLINK-33737          
1 63456U 25069Z   26068.47815767  .00022307  00000+0  76331-3 0  9999
2 63456  53.1584 143.3420 0000960  92.8182 267.2928 15.30187680 53265
